start=new Date('2022-06-13T00:00:00.000Z').valueOf();
sats=[{"SEMIMAJOR_AXIS":"6925.349","TLE_LINE1":"1 47602U 21009BG  22163.90179476  .00000055  00000-0  22577-4 0  9995","LAUNCH_DATE":"2021-02-04","PERIAPSIS":"546.055","OBJECT_ID":"2021-009BG","ECCENTRICITY":"0.00016730","EPHEMERIS_TYPE":"0","NORAD_CAT_ID":"47602","MEAN_MOTION_DOT":"0.00000055","ARG_OF_PERICENTER":"61.0825","CLASSIFICATION_TYPE":"U","OBJECT_TYPE":"PAYLOAD","OBJECT_NAME":"STARLINK-2007","RCS_SIZE":"LARGE","INCLINATION":"53.0552","REF_FRAME":"TEME","TIME_SYSTEM":"UTC","REV_AT_EPOCH":"7567","MEAN_MOTION":"15.06399843","RA_OF_ASC_NODE":"22.8898","APOAPSIS":"548.373","MEAN_ANOMALY":"299.0332","PERIOD":"95.592","BSTAR":"0.00002257700000","CENTER_NAME":"EARTH","MEAN_MOTION_DDOT":"0.0000000000000","TLE_LINE2":"2 47602  53.0552  22.8898 0001673  61.0825 299.0332 15.06399843 75678","FILE":"3493591","MEAN_ELEMENT_THEORY":"SGP4","DECAY_DATE":null,"EPOCH":"2022-06-12T21:38:35.067264","ELEMENT_SET_NO":"999","SITE":"AFETR","GP_ID":"205988515","COUNTRY_CODE":"US"},{"TLE_LINE2":"2 47603  53.0571  53.1272 0002135  61.8888 298.2316 15.06398493 74643","FILE":"3493781","MEAN_ELEMENT_THEORY":"SGP4","PERIOD":"95.592","BSTAR":"-0.00000654850000","MEAN_ANOMALY":"298.2316","CENTER_NAME":"EARTH","MEAN_MOTION_DDOT":"0.0000000000000","RA_OF_ASC_NODE":"53.1272","APOAPSIS":"548.697","MEAN_MOTION":"15.06398493","GP_ID":"206013903","COUNTRY_CODE":"US","SITE":"AFETR","EPOCH":"2022-06-12T20:20:18.021984","ELEMENT_SET_NO":"999","DECAY_DATE":null,"NORAD_CAT_ID":"47603","ECCENTRICITY":"0.00021350","EPHEMERIS_TYPE":"0","TLE_LINE1":"1 47603U 21009BH  22163.84743081 -.00000379  00000-0 -65485-5 0  9995","LAUNCH_DATE":"2021-02-04","OBJECT_ID":"2021-009BH","PERIAPSIS":"545.740","SEMIMAJOR_AXIS":"6925.353","INCLINATION":"53.0571","REF_FRAME":"TEME","TIME_SYSTEM":"UTC","REV_AT_EPOCH":"7464","OBJECT_NAME":"STARLINK-2008","RCS_SIZE":"LARGE","MEAN_MOTION_DOT":"-0.00000379","ARG_OF_PERICENTER":"61.8888","CLASSIFICATION_TYPE":"U","OBJECT_TYPE":"PAYLOAD"},{"DECAY_DATE":null,"EPOCH":"2022-06-12T21:49:11.175168","ELEMENT_SET_NO":"999","SITE":"AFETR","GP_ID":"205988513","COUNTRY_CODE":"US","MEAN_MOTION":"15.06417360","APOAPSIS":"548.383","RA_OF_ASC_NODE":"22.8443","MEAN_MOTION_DDOT":"0.0000000000000","CENTER_NAME":"EARTH","PERIOD":"95.591","MEAN_ANOMALY":"306.4539","BSTAR":"-0.00008638700000","MEAN_ELEMENT_THEORY":"SGP4","FILE":"3493591","TLE_LINE2":"2 47604  53.0559  22.8443 0001765  53.6613 306.4539 15.06417360 75685","OBJECT_TYPE":"PAYLOAD","CLASSIFICATION_TYPE":"U","ARG_OF_PERICENTER":"53.6613","MEAN_MOTION_DOT":"-0.00001569","RCS_SIZE":"LARGE","OBJECT_NAME":"STARLINK-2021","TIME_SYSTEM":"UTC","REV_AT_EPOCH":"7568","REF_FRAME":"TEME","INCLINATION":"53.0559","SEMIMAJOR_AXIS":"6925.295","LAUNCH_DATE":"2021-02-04","OBJECT_ID":"2021-009BJ","PERIAPSIS":"545.938","TLE_LINE1":"1 47604U 21009BJ  22163.90915712 -.00001569  00000-0 -86387-4 0  9990","EPHEMERIS_TYPE":"0","ECCENTRICITY":"0.00017650","NORAD_CAT_ID":"47604"},{"SITE":"AFETR","GP_ID":"206015400","COUNTRY_CODE":"US","DECAY_DATE":null,"ELEMENT_SET_NO":"999","EPOCH":"2022-06-12T20:25:33.712032","CENTER_NAME":"EARTH","MEAN_MOTION_DDOT":"0.0000000000000","MEAN_ANOMALY":"344.3895","PERIOD":"90.713","BSTAR":"-0.00000239480000","FILE":"3493781","MEAN_ELEMENT_THEORY":"SGP4","TLE_LINE2":"2 47605  53.0425 297.4449 0002900  15.7219 344.3895 15.87426330 76264","MEAN_MOTION":"15.87426330","RA_OF_ASC_NODE":"297.4449","APOAPSIS":"311.443","OBJECT_NAME":"STARLINK-2023","RCS_SIZE":"LARGE","REF_FRAME":"TEME","REV_AT_EPOCH":"7626","TIME_SYSTEM":"UTC","INCLINATION":"53.0425","OBJECT_TYPE":"PAYLOAD","CLASSIFICATION_TYPE":"U","MEAN_MOTION_DOT":"-0.00001433","ARG_OF_PERICENTER":"15.7219","EPHEMERIS_TYPE":"0","ECCENTRICITY":"0.00029000","NORAD_CAT_ID":"47605","SEMIMAJOR_AXIS":"6687.638","LAUNCH_DATE":"2021-02-04","OBJECT_ID":"2021-009BK","PERIAPSIS":"307.564","TLE_LINE1":"1 47605U 21009BK  22163.85108463 -.00001433  00000-0 -23948-5 0  9997"},{"COUNTRY_CODE":"US","GP_ID":"206014154","SITE":"AFETR","ELEMENT_SET_NO":"999","EPOCH":"2022-06-12T21:54:30.885408","DECAY_DATE":null,"TLE_LINE2":"2 47606  53.0540  22.8432 0001505  66.7560 293.3587 15.06405251 75080","MEAN_ELEMENT_THEORY":"SGP4","FILE":"3493781","PERIOD":"95.592","MEAN_ANOMALY":"293.3587","BSTAR":"0.00036690000000","MEAN_MOTION_DDOT":"0.0000000000000","CENTER_NAME":"EARTH","APOAPSIS":"548.240","RA_OF_ASC_NODE":"22.8432","MEAN_MOTION":"15.06405251","INCLINATION":"53.0540","TIME_SYSTEM":"UTC","REV_AT_EPOCH":"7508","REF_FRAME":"TEME","RCS_SIZE":"LARGE","OBJECT_NAME":"STARLINK-2024","ARG_OF_PERICENTER":"66.7560","MEAN_MOTION_DOT":"0.00005188","CLASSIFICATION_TYPE":"U","OBJECT_TYPE":"PAYLOAD","NORAD_CAT_ID":"47606","ECCENTRICITY":"0.00015050","EPHEMERIS_TYPE":"0","TLE_LINE1":"1 47606U 21009BL  22163.91285747  .00005188  00000-0  36690-3 0  9991","OBJECT_ID":"2021-009BL","LAUNCH_DATE":"2021-02-04","PERIAPSIS":"546.155","SEMIMAJOR_AXIS":"6925.332"},{"APOAPSIS":"548.568","RA_OF_ASC_NODE":"22.9338","MEAN_MOTION":"15.06401852","TLE_LINE2":"2 47607  53.0573  22.9338 0001964  48.4497 311.6660 15.06401852 75076","MEAN_ELEMENT_THEORY":"SGP4","FILE":"3493781","BSTAR":"0.00003241500000","PERIOD":"95.592","MEAN_ANOMALY":"311.6660","MEAN_MOTION_DDOT":"0.0000000000000","CENTER_NAME":"EARTH","EPOCH":"2022-06-12T21:22:39.247392","ELEMENT_SET_NO":"999","DECAY_DATE":null,"COUNTRY_CODE":"US","GP_ID":"206014404","SITE":"AFETR","TLE_LINE1":"1 47607U 21009BM  22163.89073203  .00000201  00000-0  32415-4 0  9994","PERIAPSIS":"545.848","LAUNCH_DATE":"2021-02-04","OBJECT_ID":"2021-009BM","SEMIMAJOR_AXIS":"6925.343","NORAD_CAT_ID":"47607","ECCENTRICITY":"0.00019640","EPHEMERIS_TYPE":"0","ARG_OF_PERICENTER":"48.4497","MEAN_MOTION_DOT":"0.00000201","CLASSIFICATION_TYPE":"U","OBJECT_TYPE":"PAYLOAD","INCLINATION":"53.0573","TIME_SYSTEM":"UTC","REV_AT_EPOCH":"7507","REF_FRAME":"TEME","RCS_SIZE":"LARGE","OBJECT_NAME":"STARLINK-2025"},{"NORAD_CAT_ID":"47620","EPHEMERIS_TYPE":"0","ECCENTRICITY":"0.00016970","LAUNCH_DATE":"2021-02-16","OBJECT_ID":"2021-012A","PERIAPSIS":"546.035","TLE_LINE1":"1 47620U 21012A   22163.50923822  .00000254  00000-0  35982-4 0  9992","SEMIMAJOR_AXIS":"6925.345","REF_FRAME":"TEME","REV_AT_EPOCH":"7355","TIME_SYSTEM":"UTC","INCLINATION":"53.0548","OBJECT_NAME":"STARLINK-1528","RCS_SIZE":"LARGE","CLASSIFICATION_TYPE":"U","OBJECT_TYPE":"PAYLOAD","MEAN_MOTION_DOT":"0.00000254","ARG_OF_PERICENTER":"59.7432","FILE":"3493365","MEAN_ELEMENT_THEORY":"SGP4","TLE_LINE2":"2 47620  53.0548  84.6380 0001697  59.7432 300.3724 15.06401242 73552","CENTER_NAME":"EARTH","MEAN_MOTION_DDOT":"0.0000000000000","PERIOD":"95.592","BSTAR":"0.00003598200000","MEAN_ANOMALY":"300.3724","RA_OF_ASC_NODE":"84.6380","APOAPSIS":"548.385","MEAN_MOTION":"15.06401242","COUNTRY_CODE":"US","GP_ID":"205982814","SITE":"AFETR","EPOCH":"2022-06-12T12:13:18.182208","ELEMENT_SET_NO":"999","DECAY_DATE":null},{"SITE":"AFETR","GP_ID":"205982831","COUNTRY_CODE":"US","DECAY_DATE":null,"ELEMENT_SET_NO":"999","EPOCH":"2022-06-12T12:02:41.516160","PERIOD":"95.593","MEAN_ANOMALY":"305.7648","BSTAR":"0.00005421700000","CENTER_NAME":"EARTH","MEAN_MOTION_DDOT":"0.0000000000000","TLE_LINE2":"2 47621  53.0543  84.6773 0002355  54.3560 305.7648 15.06393102 73558","FILE":"3493366","MEAN_ELEMENT_THEORY":"SGP4","MEAN_MOTION":"15.06393102","RA_OF_ASC_NODE":"84.6773","APOAPSIS":"548.866","OBJECT_NAME":"STARLINK-1609","RCS_SIZE":"LARGE","INCLINATION":"53.0543","REF_FRAME":"TEME","TIME_SYSTEM":"UTC","REV_AT_EPOCH":"7355","MEAN_MOTION_DOT":"0.00000526","ARG_OF_PERICENTER":"54.3560","OBJECT_TYPE":"PAYLOAD","CLASSIFICATION_TYPE":"U","ECCENTRICITY":"0.00023550","EPHEMERIS_TYPE":"0","NORAD_CAT_ID":"47621","SEMIMAJOR_AXIS":"6925.370","TLE_LINE1":"1 47621U 21012B   22163.50186940  .00000526  00000-0  54217-4 0  9999","OBJECT_ID":"2021-012B","LAUNCH_DATE":"2021-02-16","PERIAPSIS":"545.604"},{"CENTER_NAME":"EARTH","MEAN_MOTION_DDOT":"0.0000000000000","BSTAR":"0.00013699000000","PERIOD":"95.592","MEAN_ANOMALY":"300.8946","FILE":"3493366","MEAN_ELEMENT_THEORY":"SGP4","TLE_LINE2":"2 47622  53.0567  84.6871 0002187  59.2258 300.8946 15.06400478 73557","MEAN_MOTION":"15.06400478","RA_OF_ASC_NODE":"84.6871","APOAPSIS":"548.727","SITE":"AFETR","GP_ID":"205983328","COUNTRY_CODE":"US","DECAY_DATE":null,"ELEMENT_SET_NO":"999","EPOCH":"2022-06-12T11:56:01.075488","EPHEMERIS_TYPE":"0","ECCENTRICITY":"0.00021870","NORAD_CAT_ID":"47622","SEMIMAJOR_AXIS":"6925.347","OBJECT_ID":"2021-012C","LAUNCH_DATE":"2021-02-16","PERIAPSIS":"545.698","TLE_LINE1":"1 47622U 21012C   22163.49723467  .00001759  00000-0  13699-3 0  9996","OBJECT_NAME":"STARLINK-1645","RCS_SIZE":"LARGE","REF_FRAME":"TEME","TIME_SYSTEM":"UTC","REV_AT_EPOCH":"7355","INCLINATION":"53.0567","CLASSIFICATION_TYPE":"U","OBJECT_TYPE":"PAYLOAD","MEAN_MOTION_DOT":"0.00001759","ARG_OF_PERICENTER":"59.2258"},{"DECAY_DATE":null,"ELEMENT_SET_NO":"999","EPOCH":"2022-06-12T21:47:12.946272","SITE":"AFETR","GP_ID":"206014655","COUNTRY_CODE":"US","MEAN_MOTION":"15.06395742","APOAPSIS":"548.395","RA_OF_ASC_NODE":"17.8670","BSTAR":"0.00000743660000","PERIOD":"95.592","MEAN_ANOMALY":"291.3534","MEAN_MOTION_DDOT":"0.0000000000000","CENTER_NAME":"EARTH","TLE_LINE2":"2 47623  53.0568  17.8670 0001687  68.7635 291.3534 15.06395742 75042","MEAN_ELEMENT_THEORY":"SGP4","FILE":"3493781","ARG_OF_PERICENTER":"68.7635","MEAN_MOTION_DOT":"-0.00000171","OBJECT_TYPE":"PAYLOAD","CLASSIFICATION_TYPE":"U","RCS_SIZE":"LARGE","OBJECT_NAME":"STARLINK-1655","INCLINATION":"53.0568","TIME_SYSTEM":"UTC","REV_AT_EPOCH":"7504","REF_FRAME":"TEME","SEMIMAJOR_AXIS":"6925.362","TLE_LINE1":"1 47623U 21012D   22163.90778873 -.00000171  00000-0  74366-5 0  9992","LAUNCH_DATE":"2021-02-16","OBJECT_ID":"2021-012D","PERIAPSIS":"546.058","ECCENTRICITY":"0.00016870","EPHEMERIS_TYPE":"0","NORAD_CAT_ID":"47623"}];
